ONEWEB-0340             
1 49206U 21083W   24262.53037466 -.00000026  00000+0 -99195-4 0  9991
2 49206  87.9060 102.1805 0001739  80.2013 279.9315 13.18692229146060
ONEWEB-0341             
1 49207U 21083X   24262.53827779 -.00000589  00000+0 -15264-2 0  9993
2 49207  87.9060 102.1913 0002506  83.7102 276.4316 13.18692037146083
ONEWEB-0342             
1 49208U 21083Y   24262.46354956  .00000093  00000+0  19753-3 0  9994
2 49208  87.9229  41.1119 0001844 102.6929 257.4410 13.20770729152734
ONEWEB-0343             
1 49209U 21083Z   24262.53355623  .00000000  00000+0 -33160-4 0  9993
2 49209  87.9052 102.1942 0002424  90.6818 269.4592 13.18685509146138
ONEWEB-0344             
1 49210U 21083AA  24262.55289783 -.00000183  00000+0 -53655-3 0  9993
2 49210  87.8854  86.9311 0002093  80.6306 279.5060 13.13468152147323
ONEWEB-0345             
1 49211U 21083AB  24262.49418818  .00000195  00000+0  49792-3 0  9998
2 49211  87.8851  86.9157 0002115  78.3471 281.7895 13.13471106147325
ONEWEB-0346             
1 49212U 21083AC  24262.54301054 -.00000019  00000+0 -80076-4 0  9996
2 49212  87.9060 102.1998 0001620  72.3901 287.7408 13.18688094146073
ONEWEB-0348             
1 49213U 21083AD  24262.45407603  .00000004  00000+0 -23202-4 0  9995
2 49213  87.9239  41.0951 0001921  76.3290 283.8057 13.20772471152767
